{"type": "FeatureCollection", "features": [ {"type": "Feature", "properties": {"norad_id": 66545, "name": "SHIJIAN-30A", "group": "last-30-days", "lat": 42.55746253241685, "lon": 99.8799302384153, "alt_km": 518.0194049931297, "timestamp": "2025-12-14T03:55:51.547636+00:00", "meta": {"OBJECT_NAME": "SHIJIAN-30A", "OBJECT_ID": "2025-266A", "EPOCH": "2025-12-13T14:44:26.880000", "MEAN_MOTION": 15.15472855, "ECCENTRICITY": 0.0012824, "INCLINATION": 51.798, "RA_OF_ASC_NODE": 328.7654, "ARG_OF_PERICENTER": 359.6154, "MEAN_ANOMALY": 0.4811, "EPHEMERIS_TYPE": 0, "CLASSIFICATION_TYPE": "U", "NORAD_CAT_ID": 66545, "ELEMENT_SET_NO": 999, "REV_AT_EPOCH": 371, "BSTAR": 0.0006173, "MEAN_MOTION_DOT": 0.00011558, "MEAN_MOTION_DDOT": 0}, "tle": {"line1": "1 66545U 25266A   25347.61420000  .00011558  00000+0  61730-3 0  9990", "line2": "2 66545  51.7980 328.7654 0012824 359.6154   0.4811 15.15472855  3711"}}, "geometry": {"type": "Point", "coordinates": [99.8799302384153, 42.55746253241685]}}, {"type": "Feature", "properties": {"norad_id": 66546, "name": "SHIJIAN-30B", "group": "last-30-days", "lat": 45.76873069370464, "lon": 92.2016293187994, "alt_km": 515.7376530249885, "timestamp": "2025-12-14T03:55:51.547648+00:00", "meta": {"OBJECT_NAME": "SHIJIAN-30B", "OBJECT_ID": "2025-266B", "EPOCH": "2025-12-13T17:56:02.106240", "MEAN_MOTION": 15.15447608, "ECCENTRICITY": 0.0010559, "INCLINATION": 51.7963, "RA_OF_ASC_NODE": 328.1515, "ARG_OF_PERICENTER": 3.4052, "MEAN_ANOMALY": 356.6994, "EPHEMERIS_TYPE": 0, "CLASSIFICATION_TYPE": "U", "NORAD_CAT_ID": 66546, "ELEMENT_SET_NO": 999, "REV_AT_EPOCH": 373, "BSTAR": 0.00081627, "MEAN_MOTION_DOT": 0.00015373, "MEAN_MOTION_DDOT": 0}, "tle": {"line1": "1 66546U 25266B   25347.74724660  .00015373  00000+0  81627-3 0  9990", "line2": "2 66546  51.7963 328.1515 0010559   3.4052 356.6994 15.15447608  3735"}}, "geometry": {"type": "Point", "coordinates": [92.2016293187994, 45.76873069370464]}}, {"type": "Feature", "properties": {"norad_id": 66547, "name": "SHIJIAN-30C", "group": "last-30-days", "lat": 46.87393727160283, "lon": 88.97926577429733, "alt_km": 516.6731051267097, "timestamp": "2025-12-14T03:55:51.547658+00:00", "meta": {"OBJECT_NAME": "SHIJIAN-30C", "OBJECT_ID": "2025-266C", "EPOCH": "2025-12-13T17:56:40.041024", "MEAN_MOTION": 15.15399325, "ECCENTRICITY": 0.0011407, "INCLINATION": 51.7973, "RA_OF_ASC_NODE": 328.156, "ARG_OF_PERICENTER": 354.9968, "MEAN_ANOMALY": 5.0893, "EPHEMERIS_TYPE": 0, "CLASSIFICATION_TYPE": "U", "NORAD_CAT_ID": 66547, "ELEMENT_SET_NO": 999, "REV_AT_EPOCH": 373, "BSTAR": 0.00072486, "MEAN_MOTION_DOT": 0.00013597, "MEAN_MOTION_DDOT": 0}, "tle": {"line1": "1 66547U 25266C   25347.74768566  .00013597  00000+0  72486-3 0  9993", "line2": "2 66547  51.7973 328.1560 0011407 354.9968   5.0893 15.15399325  3735"}}, "geometry": {"type": "Point", "coordinates": [88.97926577429733, 46.87393727160283]}}, {"type": "Feature", "properties": {"norad_id": 66548, "name": "CZ-2C R/B", "group": "last-30-days", "lat": -22.444799934575144, "lon": -54.31002383355705, "alt_km": 529.4905966658016, "timestamp": "2025-12-14T03:55:51.547669+00:00", "meta": {"OBJECT_NAME": "CZ-2C R/B", "OBJECT_ID": "2025-266D", "EPOCH": "2025-12-13T06:06:55.406880", "MEAN_MOTION": 15.30195998, "ECCENTRICITY": 0.00838768, "INCLINATION": 52.0547, "RA_OF_ASC_NODE": 328.8263, "ARG_OF_PERICENTER": 174.7813, "MEAN_ANOMALY": 185.4067, "EPHEMERIS_TYPE": 0, "CLASSIFICATION_TYPE": "U", "NORAD_CAT_ID": 66548, "ELEMENT_SET_NO": 999, "REV_AT_EPOCH": 369, "BSTAR": 0.00051895802, "MEAN_MOTION_DOT": 0.00016771, "MEAN_MOTION_DDOT": 0}, "tle": {"line1": "1 66548U 25266D   25347.25480795  .00016771  00000+0  51896-3 0  9994", "line2": "2 66548  52.0547 328.8263 0083876 174.7813 185.4067 15.30195998  3698"}}, "geometry": {"type": "Point", "coordinates": [-54.31002383355705, -22.444799934575144]}}, {"type": "Feature", "properties": {"norad_id": 66549, "name": "SHIJIAN-28", "group": "last-30-days", "lat": -1.4026324826948504, "lon": -101.0600604117774, "alt_km": 35789.310966983605, "timestamp": "2025-12-14T03:55:51.547682+00:00", "meta": {"OBJECT_NAME": "SHIJIAN-28", "OBJECT_ID": "2025-277A", "EPOCH": "2025-12-13T17:25:42.898080", "MEAN_MOTION": 1.0027198, "ECCENTRICITY": 8.35e-05, "INCLINATION": 5.0159, "RA_OF_ASC_NODE": 274.9409, "ARG_OF_PERICENTER": 132.6511, "MEAN_ANOMALY": 53.348, "EPHEMERIS_TYPE": 0, "CLASSIFICATION_TYPE": "U", "NORAD_CAT_ID": 66549, "ELEMENT_SET_NO": 999, "REV_AT_EPOCH": 29, "BSTAR": 0, "MEAN_MOTION_DOT": -3.43e-06, "MEAN_MOTION_DDOT": 0}, "tle": {"line1": "1 66549U 25277A   25347.72619095 -.00000343  00000+0  00000+0 0  9992", "line2": "2 66549   5.0159 274.9409 0000835 132.6511  53.3480  1.00271980   294"}}, "geometry": {"type": "Point", "coordinates": [-101.0600604117774, -1.4026324826948504]}}, {"type": "Feature", "properties": {"norad_id": 66550, "name": "CZ-7A R/B", "group": "last-30-days", "lat": 4.003550867094106, "lon": -75.01184883746525, "alt_km": 29775.043652817647, "timestamp": "2025-12-14T03:55:51.547696+00:00", "meta": {"OBJECT_NAME": "CZ-7A R/B", "OBJECT_ID": "2025-277B", "EPOCH": "2025-12-12T06:12:30.080736", "MEAN_MOTION": 2.67691101, "ECCENTRICITY": 0.70327133, "INCLINATION": 14.3853, "RA_OF_ASC_NODE": 270.1306, "ARG_OF_PERICENTER": 188.5498, "MEAN_ANOMALY": 145.8941, "EPHEMERIS_TYPE": 0, "CLASSIFICATION_TYPE": "U", "NORAD_CAT_ID": 66550, "ELEMENT_SET_NO": 999, "REV_AT_EPOCH": 33, "BSTAR": 0.0023540445, "MEAN_MOTION_DOT": 0.01686496, "MEAN_MOTION_DDOT": -2.63066e-07}, "tle": {"line1": "1 66550U 25277B   25346.25868149  .01686496 -26307-6  23540-2 0  9999", "line2": "2 66550  14.3853 270.1306 7032713 188.5498 145.8941  2.67691101   334"}}, "geometry": {"type": "Point", "coordinates": [-75.01184883746525, 4.003550867094106]}}, {"type": "Feature", "properties": {"norad_id": 66551, "name": "USA 568", "group": "last-30-days", "lat": 38.663081687938785, "lon": -36.316391172931276, "alt_km": 85.2679896262216, "timestamp": "2025-12-14T03:55:51.547707+00:00", "meta": {"OBJECT_NAME": "USA 568", "OBJECT_ID": "2024-134K", "EPOCH": "2025-12-02T16:00:03.000096", "MEAN_MOTION": 15.87051116, "ECCENTRICITY": 7.17e-05, "INCLINATION": 53.1571, "RA_OF_ASC_NODE": 236.7807, "ARG_OF_PERICENTER": 110.7411, "MEAN_ANOMALY": 313.9012, "EPHEMERIS_TYPE": 0, "CLASSIFICATION_TYPE": "U", "NORAD_CAT_ID": 66551, "ELEMENT_SET_NO": 999, "REV_AT_EPOCH": 262, "BSTAR": -0.0074303, "MEAN_MOTION_DOT": -0.01709685, "MEAN_MOTION_DDOT": 0}, "tle": {"line1": "1 66551U 24134K   25336.66670139 -.01709685  00000+0 -74303-2 0  9990", "line2": "2 66551  53.1571 236.7807 0000717 110.7411 313.9012 15.87051116  2624"}}, "geometry": {"type": "Point", "coordinates": [-36.316391172931276, 38.663081687938785]}}, {"type": "Feature", "properties": {"norad_id": 66554, "name": "GLOBAL-33", "group": "last-30-days", "lat": 1.2780942630034533, "lon": 50.18960930380972, "alt_km": 469.0557371923869, "timestamp": "2025-12-14T03:55:51.547717+00:00", "meta": {"OBJECT_NAME": "GLOBAL-33", "OBJECT_ID": "2025-267A", "EPOCH": "2025-12-13T04:26:51.362016", "MEAN_MOTION": 15.31634197, "ECCENTRICITY": 0.00041642, "INCLINATION": 42.0219, "RA_OF_ASC_NODE": 54.4209, "ARG_OF_PERICENTER": 57.7064, "MEAN_ANOMALY": 302.4176, "EPHEMERIS_TYPE": 0, "CLASSIFICATION_TYPE": "U", "NORAD_CAT_ID": 66554, "ELEMENT_SET_NO": 999, "REV_AT_EPOCH": 347, "BSTAR": 0.00030878268, "MEAN_MOTION_DOT": 9.397e-05, "MEAN_MOTION_DDOT": 0}, "tle": {"line1": "1 66554U 25267A   25347.18531669  .00009397  00000+0  30878-3 0  9994", "line2": "2 66554  42.0219  54.4209 0004164  57.7064 302.4176 15.31634197  3471"}}, "geometry": {"type": "Point", "coordinates": [50.18960930380972, 1.2780942630034533]}}, {"type": "Feature", "properties": {"norad_id": 66555, "name": "ELECTRON KICK STAGE R/B", "group": "last-30-days", "lat": 39.94247745057132, "lon": 117.0342177717264, "alt_km": 456.2486709271034, "timestamp": "2025-12-14T03:55:51.547730+00:00", "meta": {"OBJECT_NAME": "ELECTRON KICK STAGE R/B", "OBJECT_ID": "2025-267B", "EPOCH": "2025-12-13T07:16:59.719008", "MEAN_MOTION": 15.32855871, "ECCENTRICITY": 0.00065265, "INCLINATION": 42.0199, "RA_OF_ASC_NODE": 53.5743, "ARG_OF_PERICENTER": 57.5282, "MEAN_ANOMALY": 302.6186, "EPHEMERIS_TYPE": 0, "CLASSIFICATION_TYPE": "U", "NORAD_CAT_ID": 66555, "ELEMENT_SET_NO": 999, "REV_AT_EPOCH": 349, "BSTAR": 0.001242209, "MEAN_MOTION_DOT": 0.0004027, "MEAN_MOTION_DDOT": 0}, "tle": {"line1": "1 66555U 25267B   25347.30346897  .00040270  00000+0  12422-2 0  9995", "line2": "2 66555  42.0199  53.5743 0006526  57.5282 302.6186 15.32855871  3496"}}, "geometry": {"type": "Point", "coordinates": [117.0342177717264, 39.94247745057132]}}, {"type": "Feature", "properties": {"norad_id": 66557, "name": "STARLINK-35699", "group": "last-30-days", "lat": 27.064544685323174, "lon": -100.38497050275632, "alt_km": 410.29389725794044, "timestamp": "2025-12-14T03:55:51.547742+00:00", "meta": {"OBJECT_NAME": "STARLINK-35699", "OBJECT_ID": "2025-268A", "EPOCH": "2025-12-13T07:14:38.177664", "MEAN_MOTION": 15.50660563, "ECCENTRICITY": 0.000189, "INCLINATION": 42.9998, "RA_OF_ASC_NODE": 117.9115, "ARG_OF_PERICENTER": 254.748, "MEAN_ANOMALY": 105.3171, "EPHEMERIS_TYPE": 0, "CLASSIFICATION_TYPE": "U", "NORAD_CAT_ID": 66557, "ELEMENT_SET_NO": 999, "REV_AT_EPOCH": 471, "BSTAR": 0.0029630032, "MEAN_MOTION_DOT": 0.00178011, "MEAN_MOTION_DDOT": 0}, "tle": {"line1": "1 66557U 25268A   25347.30183076  .00178011  00000+0  29630-2 0  9990", "line2": "2 66557  42.9998 117.9115 0001890 254.7480 105.3171 15.50660563  4712"}}, "geometry": {"type": "Point", "coordinates": [-100.38497050275632, 27.064544685323174]}}]}